*******************************************************************************
JPL/HORIZONS                762 Pulcova (A913 RD)          2020-Jun-22 09:27:50
Rec #:     762 (+COV) Soln.date: 2020-Feb-22_15:36:24   # obs: 3067 (1916-2020)
 
IAU76/J2000 helio. ecliptic osc. elements (au, days, deg., period=Julian yrs):
 
  EPOCH=  2455206.5 ! 2010-Jan-10.00 (TDB)         Residual RMS= .28388
   EC= .1014647542082111   QR= 2.834325742859286   TP= 2455614.3695442979
   OM= 305.7958899312839   W=  189.0679675656943   IN= 13.08934454843869
   A= 3.154384601086715    MA= 288.2447989474282   ADIST= 3.474443459314145
   PER= 5.60248            N= .175926838           ANGMOM= .030394264
   DAN= 3.46955            DDN= 2.83759            L= 134.6320306
   B= -2.0454973           MOID= 1.84934998        TP= 2011-Feb-21.8695442979
 
Asteroid physical parameters (km, seconds, rotational period in hours):
   GM= n.a.                RAD= 73.6715            ROTPER= 5.839
   H= 7.9                  G= .150                 B-V= .658
                           ALBEDO= .040            STYP= F
 
ASTEROID comments: 
1: soln ref.= JPL#102, OCC=0
2: source=ORB
*******************************************************************************
 
 
*******************************************************************************
Ephemeris / WWW_USER Mon Jun 22 09:27:50 2020 Pasadena, USA      / Horizons
*******************************************************************************
Target body name: 762 Pulcova (A913 RD)           {source: JPL#102}
Center body name: Solar System Barycenter (0)     {source: DE431}
Center-site name: BODY CENTER
*******************************************************************************
Start time      : A.D. 1969-Jun-28 00:00:00.0000 TDB
Stop  time      : A.D. 2071-May-04 00:00:00.0000 TDB
Step-size       : 7200 minutes
*******************************************************************************
Center geodetic : 0.00000000,0.00000000,0.0000000 {E-lon(deg),Lat(deg),Alt(km)}
Center cylindric: 0.00000000,0.00000000,0.0000000 {E-lon(deg),Dxy(km),Dz(km)}
Center radii    : (undefined)                                                  
Small perturbers: Yes                             {source: SB431-N16}
Output units    : AU-D
Output type     : GEOMETRIC cartesian states
Output format   : 2 (position and velocity)
Reference frame : Ecliptic of J2000.0
*******************************************************************************
Initial IAU76/J2000 heliocentric ecliptic osculating elements (au, days, deg.):
  EPOCH=  2455206.5 ! 2010-Jan-10.00 (TDB)         Residual RMS= .28388        
   EC= .1014647542082111   QR= 2.834325742859286   TP= 2455614.3695442979      
   OM= 305.7958899312839   W=  189.0679675656943   IN= 13.08934454843869       
  Equivalent ICRF heliocentric equatorial cartesian coordinates (au, au/d):
   X= 1.849881203767371E+00  Y= 1.912022822309381E+00  Z= 1.561295026983545E+00
  VX=-8.262462844193325E-03 VY= 5.277176569875141E-03 VZ= 1.389140767866111E-03
Asteroid physical parameters (km, seconds, rotational period in hours):        
   GM= n.a.                RAD= 73.6715            ROTPER= 5.839               
   H= 7.9                  G= .150                 B-V= .658                   
                           ALBEDO= .040            STYP= F                     
*******************************************************************************
            JDTDB,            Calendar Date (TDB),        delta-T,                      X,                      Y,                      Z,                     VX,                     VY,                     VZ,
******************************************************************************************************************************************************************************************************************
$$SOE
2441240.500000000, A.D. 1971-Oct-16 00:00:00.0000,      41.875002, -2.182511838119674E+00,  1.818106898790603E+00, -1.514550612364436E-01, -6.823730113642191E-03, -7.887420760481857E-03, -2.379199556274912E-03,
2441245.500000000, A.D. 1971-Oct-21 00:00:00.0000,      41.887996, -2.216277365627044E+00,  1.778380115608317E+00, -1.633260644202681E-01, -6.682161606984881E-03, -8.002832096089717E-03, -2.369077488736477E-03,
2441250.500000000, A.D. 1971-Oct-26 00:00:00.0000,      41.901002, -2.249330316583733E+00,  1.738083213408585E+00, -1.751445996972970E-01, -6.538710560833366E-03, -8.115462149344645E-03, -2.358213578898499E-03,
2441255.500000000, A.D. 1971-Oct-31 00:00:00.0000,      41.914018, -2.281661444885875E+00,  1.697230190246564E+00, -1.869069759735968E-01, -6.393443726580844E-03, -8.225274589067032E-03, -2.346615140903859E-03,
2441260.500000000, A.D. 1971-Nov-05 00:00:00.0000,      41.927045, -2.313261839836332E+00,  1.655835220928688E+00, -1.986095397233347E-01, -6.246428503622886E-03, -8.332235048215465E-03, -2.334289885960872E-03,
2441265.500000000, A.D. 1971-Nov-10 00:00:00.0000,      41.940083, -2.344122929206195E+00,  1.613912647160194E+00, -2.102486769454091E-01, -6.097732867963403E-03, -8.436311136088106E-03, -2.321245910793168E-03,
2441270.500000000, A.D. 1971-Nov-15 00:00:00.0000,      41.953133, -2.374236481939580E+00,  1.571476967639302E+00, -2.218208150612750E-01, -5.947425300949758E-03, -8.537472447461475E-03, -2.307491685671911E-03,
2441275.500000000, A.D. 1971-Nov-20 00:00:00.0000,      41.966194, -2.403594610502730E+00,  1.528542828113325E+00, -2.333224247519534E-01, -5.795574718282750E-03, -8.635690568686587E-03, -2.293036042063539E-03,
2441280.500000000, A.D. 1971-Nov-25 00:00:00.0000,      41.979263, -2.432189772879136E+00,  1.485125011411842E+00, -2.447500217323877E-01, -5.642250399441461E-03, -8.730939080771813E-03, -2.277888159924936E-03,
2441285.500000000, A.D. 1971-Nov-30 00:00:00.0000,      41.992339, -2.460014774213087E+00,  1.441238427471865E+00, -2.561001684614501E-01, -5.487521917641455E-03, -8.823193559514039E-03, -2.262057554673550E-03,
2441290.500000000, A.D. 1971-Dec-05 00:00:00.0000,      42.005421, -2.487062768104587E+00,  1.396898103369589E+00, -2.673694757860424E-01, -5.331459070448173E-03, -8.912431572751994E-03, -2.245554063858232E-03,
2441295.500000000, A.D. 1971-Dec-10 00:00:00.0000,      42.018511, -2.513327257559252E+00,  1.352119173372828E+00, -2.785546045178578E-01, -5.174131811197704E-03, -8.998632674856516E-03, -2.228387833561891E-03,
2441300.500000000, A.D. 1971-Dec-15 00:00:00.0000,      42.031607, -2.538802095597924E+00,  1.306916869027702E+00, -2.896522669416163E-01, -5.015610181501864E-03, -9.081778398544802E-03, -2.210569304601182E-03,
2441305.500000000, A.D. 1971-Dec-20 00:00:00.0000,      42.044709, -2.563481485532368E+00,  1.261306509293177E+00, -3.006592282540684E-01, -4.855964245249303E-03, -9.161852243876273E-03, -2.192109198659028E-03,
2441310.500000000, A.D. 1971-Dec-25 00:00:00.0000,      42.057813, -2.587359980914571E+00,  1.215303490738178E+00, -3.115723079335725E-01, -4.695264023946260E-03, -9.238839664223826E-03, -2.173018504365215E-03,
2441315.500000000, A.D. 1971-Dec-30 00:00:00.0000,      42.070918, -2.610432485164971E+00,  1.168923277815908E+00, -3.223883810396399E-01, -4.533579432881719E-03, -9.312728049521948E-03, -2.153308463170487E-03,
2441320.500000000, A.D. 1972-Jan-04 00:00:00.0000,      42.184006, -2.632694250883459E+00,  1.122181393227315E+00, -3.331043794411200E-01, -4.370980218169143E-03, -9.383506707447560E-03, -2.132990554945653E-03,
2441325.500000000, A.D. 1972-Jan-09 00:00:00.0000,      42.184152, -2.654140878849415E+00,  1.075093408383431E+00, -3.437172929721027E-01, -4.207535895442167E-03, -9.451166842647652E-03, -2.112076483510166E-03,
2441330.500000000, A.D. 1972-Jan-14 00:00:00.0000,      42.184298, -2.674768316720270E+00,  1.027674933977128E+00, -3.542241705156783E-01, -4.043315690569754E-03, -9.515701533700445E-03, -2.090578162258727E-03,
2441335.500000000, A.D. 1972-Jan-19 00:00:00.0000,      42.184442, -2.694572857438442E+00,  9.799416106759919E-01, -3.646221210160988E-01, -3.878388482261027E-03, -9.577105707720007E-03, -2.068507699888931E-03,
2441340.500000000, A.D. 1972-Jan-24 00:00:00.0000,      42.184582, -2.713551137355724E+00,  9.319090999477405E-01, -3.749083144197516E-01, -3.712822746428985E-03, -9.635376112771479E-03, -2.045877386194399E-03,
2441345.500000000, A.D. 1972-Jan-29 00:00:00.0000,      42.184716, -2.731700134083880E+00,  8.835930750286110E-01, -3.850799825452543E-01, -3.546686502321838E-03, -9.690511288294746E-03, -2.022699677923100E-03,
2441350.500000000, A.D. 1972-Feb-03 00:00:00.0000,      42.184844, -2.749017164080465E+00,  8.350092120442922E-01, -3.951344198830536E-01, -3.380047260493769E-03, -9.742511533685258E-03, -1.998987184726256E-03,
2441355.500000000, A.D. 1972-Feb-08 00:00:00.0000,      42.184966, -2.765499879979246E+00,  7.861731812923248E-01, -4.050689843250593E-01, -3.212971972682438E-03, -9.791378875142963E-03, -1.974752655227263E-03,
2441360.500000000, A.D. 1972-Feb-13 00:00:00.0000,      42.185082, -2.781146267674867E+00,  7.371006386943690E-01, -4.148810978249726E-01, -3.045526983637505E-03, -9.837117030893183E-03, -1.950008963234067E-03,
2441365.500000000, A.D. 1972-Feb-18 00:00:00.0000,      42.185190, -2.795954643171592E+00,  6.878072174262202E-01, -4.245682469900676E-01, -2.877777984920207E-03, -9.879731374886123E-03, -1.924769094110549E-03,
2441370.500000000, A.D. 1972-Feb-23 00:00:00.0000,      42.185288, -2.809923649205968E+00,  6.383085197328772E-01, -4.341279836052476E-01, -2.709789970678717E-03, -9.919228899096740E-03, -1.899046131314854E-03,
2441375.500000000, A.D. 1972-Feb-28 00:00:00.0000,      42.185375, -2.823052251653313E+00,  5.886201089353363E-01, -4.435579250902150E-01, -2.541627195389833E-03, -9.955618174560291E-03, -1.872853243106934E-03,
